CTC1_L_00207016-03
1 78681U 24165YN  26070.40833333  .00000000  00000+0  00000-0 0  9999
2 78681  45.0000 180.0000 0000000   0.0000   0.0000 13.42494874    17
CTC1_L_00207016-04
1 78682U 23261EV  26070.40833333  .00000000  00000+0  00000-0 0  9996
2 78682  45.0000 180.0000 0000000   0.0000  90.0000 13.42494874    17
CTC1_L_00207017-01
1 78683U 22899PE  26070.40833333  .00000000  00000+0  00000-0 0  9993
2 78683  45.0000 192.0000 0000000   0.0000 192.0000 13.42494874    14
CTC1_L_00207017-02
1 78684U 24394KP  26070.40833333  .00000000  00000+0  00000-0 0  9996
2 78684  45.0000 192.0000 0000000   0.0000 282.0000 13.42494874    15
CTC1_L_00207017-03
1 78685U 26931LT  26070.40833333  .00000000  00000+0  00000-0 0  9996
2 78685  45.0000 192.0000 0000000   0.0000  12.0000 13.42494874    17
CTC1_L_00207017-04
1 78686U 24604VB  26070.40833333  .00000000  00000+0  00000-0 0  9992
2 78686  45.0000 192.0000 0000000   0.0000 102.0000 13.42494874    18
CTC1_L_00207018-01
1 78687U 26647TN  26070.40833333  .00000000  00000+0  00000-0 0  9992
2 78687  45.0000 204.0000 0000000   0.0000 204.0000 13.42494874    16
CTC1_L_00207018-02
1 78688U 25151QZ  26070.40833333  .00000000  00000+0  00000-0 0  9992
2 78688  45.0000 204.0000 0000000   0.0000 294.0000 13.42494874    16
CTC1_L_00207018-03
1 78689U 25661JS  26070.40833333  .00000000  00000+0  00000-0 0  9999
2 78689  45.0000 204.0000 0000000   0.0000  24.0000 13.42494874    18
CTC1_L_00207018-04
1 78690U 24458SS  26070.40833333  .00000000  00000+0  00000-0 0  9994
2 78690  45.0000 204.0000 0000000   0.0000 114.0000 13.42494874    10
CTC1_L_00207019-01
1 78691U 22746IS  26070.40833333  .00000000  00000+0  00000-0 0  9993
2 78691  45.0000 216.0000 0000000   0.0000 216.0000 13.42494874    17
CTC1_L_00207019-02
1 78692U 25198MO  26070.40833333  .00000000  00000+0  00000-0 0  9998
2 78692  45.0000 216.0000 0000000   0.0000 306.0000 13.42494874    18
CTC1_L_00207019-03
1 78693U 25992DC  26070.40833333  .00000000  00000+0  00000-0 0  9991
2 78693  45.0000 216.0000 0000000   0.0000  36.0000 13.42494874    19
CTC1_L_00207019-04
1 78694U 24018NS  26070.40833333  .00000000  00000+0  00000-0 0  9990
2 78694  45.0000 216.0000 0000000   0.0000 126.0000 13.42494874    10
CTC1_L_00207020-01
1 78695U 22757JU  26070.40833333  .00000000  00000+0  00000-0 0  9999
2 78695  45.0000 228.0000 0000000   0.0000 228.0000 13.42494874    17
CTC1_L_00207020-02
1 78696U 23536EN  26070.40833333  .00000000  00000+0  00000-0 0  9996
2 78696  45.0000 228.0000 0000000   0.0000 318.0000 13.42494874    18
CTC1_L_00207020-03
1 78697U 24383RZ  26070.40833333  .00000000  00000+0  00000-0 0  9998
2 78697  45.0000 228.0000 0000000   0.0000  48.0000 13.42494874    19
CTC1_L_00207020-04
1 78698U 23059XY  26070.40833333  .00000000  00000+0  00000-0 0  9998
2 78698  45.0000 228.0000 0000000   0.0000 138.0000 13.42494874    10
CTC1_L_00207021-01
1 78699U 23512FR  26070.40833333  .00000000  00000+0  00000-0 0  9993
2 78699  45.0000 240.0000 0000000   0.0000 240.0000 13.42494874    19
CTC1_L_00207021-02
1 78700U 22775LR  26070.40833333  .00000000  00000+0  00000-0 0  9996
2 78700  45.0000 240.0000 0000000   0.0000 330.0000 13.42494874    12
CTC1_L_00207021-03
1 78701U 26970HM  26070.40833333  .00000000  00000+0  00000-0 0  9998
2 78701  45.0000 240.0000 0000000   0.0000  60.0000 13.42494874    13
CTC1_L_00207021-04
1 78702U 25413NK  26070.40833333  .00000000  00000+0  00000-0 0  9990
2 78702  45.0000 240.0000 0000000   0.0000 150.0000 13.42494874    14
CTC1_L_00207022-01
1 78703U 25035LK  26070.40833333  .00000000  00000+0  00000-0 0  9991
2 78703  45.0000 252.0000 0000000   0.0000 252.0000 13.42494874    11
CTC1_L_00207022-02
1 78704U 26403BZ  26070.40833333  .00000000  00000+0  00000-0 0  9992
2 78704  45.0000 252.0000 0000000   0.0000 342.0000 13.42494874    12
CTC1_L_00207022-03
1 78705U 25719MJ  26070.40833333  .00000000  00000+0  00000-0 0  9992
2 78705  45.0000 252.0000 0000000   0.0000  72.0000 13.42494874    13
CTC1_L_00207022-04
1 78706U 22101BR  26070.40833333  .00000000  00000+0  00000-0 0  9995
2 78706  45.0000 252.0000 0000000   0.0000 162.0000 13.42494874    14
CTC1_L_00207023-01
1 78707U 26694H   26070.40833333  .00000000  00000+0  00000-0 0  9997
2 78707  45.0000 264.0000 0000000   0.0000 264.0000 13.42494874    11
CTC1_L_00207023-02
1 78708U 23233IR  26070.40833333  .00000000  00000+0  00000-0 0  9994
2 78708  45.0000 264.0000 0000000   0.0000 354.0000 13.42494874    12
CTC1_L_00207023-03
1 78709U 25622WE  26070.40833333  .00000000  00000+0  00000-0 0  9999
2 78709  45.0000 264.0000 0000000   0.0000  84.0000 13.42494874    13
CTC1_L_00207023-04
1 78710U 24196LV  26070.40833333  .00000000  00000+0  00000-0 0  9996
2 78710  45.0000 264.0000 0000000   0.0000 174.0000 13.42494874    15
CTC1_L_00207024-01
1 78711U 23791KE  26070.40833333  .00000000  00000+0  00000-0 0  9997
2 78711  45.0000 276.0000 0000000   0.0000 276.0000 13.42494874    12
CTC1_L_00207024-02
1 78712U 26955YA  26070.40833333  .00000000  00000+0  00000-0 0  9993
2 78712  45.0000 276.0000 0000000   0.0000   6.0000 13.42494874    14
CTC1_L_00207024-03
1 78713U 24673YX  26070.40833333  .00000000  00000+0  00000-0 0  9999
2 78713  45.0000 276.0000 0000000   0.0000  96.0000 13.42494874    14
CTC1_L_00207024-04
1 78714U 24384SY  26070.40833333  .00000000  00000+0  00000-0 0  9999
2 78714  45.0000 276.0000 0000000   0.0000 186.0000 13.42494874    15
CTC1_L_00207025-01
1 78715U 25858T   26070.40833333  .00000000  00000+0  00000-0 0  9997
2 78715  45.0000 288.0000 0000000   0.0000 288.0000 13.42494874    12
CTC1_L_00207025-02
1 78716U 24846NL  26070.40833333  .00000000  00000+0  00000-0 0  9994
2 78716  45.0000 288.0000 0000000   0.0000  18.0000 13.42494874    14
CTC1_L_00207025-03
1 78717U 24721LL  26070.40833333  .00000000  00000+0  00000-0 0  9997
2 78717  45.0000 288.0000 0000000   0.0000 108.0000 13.42494874    15
CTC1_L_00207025-04
1 78718U 26553JM  26070.40833333  .00000000  00000+0  00000-0 0  9993
2 78718  45.0000 288.0000 0000000   0.0000 198.0000 13.42494874    15
CTC1_L_00207026-01
1 78719U 22562XD  26070.40833333  .00000000  00000+0  00000-0 0  9990
2 78719  45.0000 300.0000 0000000   0.0000 300.0000 13.42494874    16
CTC1_L_00207026-02
1 78720U 24802HA  26070.40833333  .00000000  00000+0  00000-0 0  9991
2 78720  45.0000 300.0000 0000000   0.0000  30.0000 13.42494874    18
CTC1_L_00207026-03
1 78721U 25332ZZ  26070.40833333  .00000000  00000+0  00000-0 0  9991
2 78721  45.0000 300.0000 0000000   0.0000 120.0000 13.42494874    19
CTC1_L_00207026-04
1 78722U 25409ZH  26070.40833333  .00000000  00000+0  00000-0 0  9997
2 78722  45.0000 300.0000 0000000   0.0000 210.0000 13.42494874    10
CTC1_L_00207027-01
1 78723U 23944JT  26070.40833333  .00000000  00000+0  00000-0 0  9990
2 78723  45.0000 312.0000 0000000   0.0000 312.0000 13.42494874    17
CTC1_L_00207027-02
1 78724U 25401AV  26070.40833333  .00000000  00000+0  00000-0 0  9991
2 78724  45.0000 312.0000 0000000   0.0000  42.0000 13.42494874    18
CTC1_L_00207027-03
1 78725U 22639JG  26070.40833333  .00000000  00000+0  00000-0 0  9992
2 78725  45.0000 312.0000 0000000   0.0000 132.0000 13.42494874    19
CTC1_L_00207027-04
1 78726U 23049IN  26070.40833333  .00000000  00000+0  00000-0 0  9999
2 78726  45.0000 312.0000 0000000   0.0000 222.0000 13.42494874    10
CTC1_L_00207028-01
1 78727U 25898GK  26070.40833333  .00000000  00000+0  00000-0 0  9994
2 78727  45.0000 324.0000 0000000   0.0000 324.0000 13.42494874    17
CTC1_L_00207028-02
1 78728U 24542OD  26070.40833333  .00000000  00000+0  00000-0 0  9990
2 78728  45.0000 324.0000 0000000   0.0000  54.0000 13.42494874    18
CTC1_L_00207028-03
1 78729U 26775FH  26070.40833333  .00000000  00000+0  00000-0 0  9991
2 78729  45.0000 324.0000 0000000   0.0000 144.0000 13.42494874    19
CTC1_L_00207028-04
1 78730U 26226FA  26070.40833333  .00000000  00000+0  00000-0 0  9994
2 78730  45.0000 324.0000 0000000   0.0000 234.0000 13.42494874    11
CTC1_L_00207029-01
1 78731U 24253EB  26070.40833333  .00000000  00000+0  00000-0 0  9993
2 78731  45.0000 336.0000 0000000   0.0000 336.0000 13.42494874    18
CTC1_L_00207029-02
1 78732U 26392QW  26070.40833333  .00000000  00000+0  00000-0 0  9990
2 78732  45.0000 336.0000 0000000   0.0000  66.0000 13.42494874    19
CTC1_L_00207029-03
1 78733U 25661MZ  26070.40833333  .00000000  00000+0  00000-0 0  9999
2 78733  45.0000 336.0000 0000000   0.0000 156.0000 13.42494874    10
CTC1_L_00207029-04
1 78734U 26739YI  26070.40833333  .00000000  00000+0  00000-0 0  9997
2 78734  45.0000 336.0000 0000000   0.0000 246.0000 13.42494874    11
CTC1_L_00207030-01
1 78735U 25562WE  26070.40833333  .00000000  00000+0  00000-0 0  9991
2 78735  45.0000 348.0000 0000000   0.0000 348.0000 13.42494874    18
CTC1_L_00207030-02
1 78736U 24411PG  26070.40833333  .00000000  00000+0  00000-0 0  9994
2 78736  45.0000 348.0000 0000000   0.0000  78.0000 13.42494874    19
CTC1_L_00207030-03
1 78737U 22080VM  26070.40833333  .00000000  00000+0  00000-0 0  9995
2 78737  45.0000 348.0000 0000000   0.0000 168.0000 13.42494874    10
CTC1_L_00207030-04
1 78738U 25939RB  26070.40833333  .00000000  00000+0  00000-0 0  9992
2 78738  45.0000 348.0000 0000000   0.0000 258.0000 13.42494874    11
